{
  "type": "FeatureCollection",
  "features": [
    {
      "type": "Feature",
      "properties": {
        "norad_id": 34907,
        "name": "COSMOS 2251 DEB",
        "group": "cosmos-2251-debris",
        "lat": 24.197971172031053,
        "lon": 40.38629509314737,
        "alt_km": 412.06088587700106,
        "timestamp": "2025-12-19T18:58:41.981435+00:00",
        "meta_object_name": "COSMOS 2251 DEB",
        "meta_object_id": "1993-036ADC",
        "meta_epoch": "2025-12-18T02:32:53.800800",
        "meta_mean_motion": 15.47692445,
        "meta_eccentricity": 0.00196953,
        "meta_inclination": 73.9694,
        "meta_ra_of_asc_node": 36.6616,
        "meta_arg_of_pericenter": 333.5312,
        "meta_mean_anomaly": 26.4892,
        "meta_ephemeris_type": 0,
        "meta_classification_type": "U",
        "meta_norad_cat_id": 34907,
        "meta_element_set_no": 999,
        "meta_rev_at_epoch": 88056,
        "meta_bstar": 0.0061125728,
        "meta_mean_motion_dot": 0.00332113,
        "meta_mean_motion_ddot": 0,
        "tle_line1": "1 34907U 93036ADC 25352.10617825  .00332113  00000+0  61126-2 0  9991",
        "tle_line2": "2 34907  73.9694  36.6616 0019695 333.5312  26.4892 15.47692445880566"
      },
      "geometry": {
        "type": "Point",
        "coordinates": [
          40.38629509314737,
          24.197971172031053
        ]
      }
    },
    {
      "type": "Feature",
      "properties": {
        "norad_id": 34908,
        "name": "COSMOS 2251 DEB",
        "group": "cosmos-2251-debris",
        "lat": -7.132341755116484,
        "lon": -167.25046617808445,
        "alt_km": 798.0420033609398,
        "timestamp": "2025-12-19T18:58:41.981445+00:00",
        "meta_object_name": "COSMOS 2251 DEB",
        "meta_object_id": "1993-036ADD",
        "meta_epoch": "2025-12-19T01:33:09.804384",
        "meta_mean_motion": 14.37415965,
        "meta_eccentricity": 0.00403405,
        "meta_inclination": 74.0579,
        "meta_ra_of_asc_node": 12.0335,
        "meta_arg_of_pericenter": 26.1885,
        "meta_mean_anomaly": 5.3138,
        "meta_ephemeris_type": 0,
        "meta_classification_type": "U",
        "meta_norad_cat_id": 34908,
        "meta_element_set_no": 999,
        "meta_rev_at_epoch": 87370,
        "meta_bstar": 0.00039207022,
        "meta_mean_motion_dot": 1.157e-05,
        "meta_mean_motion_ddot": 0,
        "tle_line1": "1 34908U 93036ADD 25353.06469681  .00001157  00000+0  39207-3 0  9990",
        "tle_line2": "2 34908  74.0579  12.0335 0040340  26.1885   5.3138 14.37415965873703"
      },
      "geometry": {
        "type": "Point",
        "coordinates": [
          -167.25046617808445,
          -7.132341755116484
        ]
      }
    },
    {
      "type": "Feature",
      "properties": {
        "norad_id": 34909,
        "name": "COSMOS 2251 DEB",
        "group": "cosmos-2251-debris",
        "lat": -73.85058248091754,
        "lon": -35.42154544253493,
        "alt_km": 623.1448769698545,
        "timestamp": "2025-12-19T18:58:41.981455+00:00",
        "meta_object_name": "COSMOS 2251 DEB",
        "meta_object_id": "1993-036ADE",
        "meta_epoch": "2025-12-19T04:46:35.040288",
        "meta_mean_motion": 14.77886614,
        "meta_eccentricity": 0.00840861,
        "meta_inclination": 74.0148,
        "meta_ra_of_asc_node": 63.8729,
        "meta_arg_of_pericenter": 198.2157,
        "meta_mean_anomaly": 161.6003,
        "meta_ephemeris_type": 0,
        "meta_classification_type": "U",
        "meta_norad_cat_id": 34909,
        "meta_element_set_no": 999,
        "meta_rev_at_epoch": 66947,
        "meta_bstar": 0.00040134455,
        "meta_mean_motion_dot": 3.028e-05,
        "meta_mean_motion_ddot": 0,
        "tle_line1": "1 34909U 93036ADE 25353.19901667  .00003028  00000+0  40134-3 0  9990",
        "tle_line2": "2 34909  74.0148  63.8729 0084086 198.2157 161.6003 14.77886614669476"
      },
      "geometry": {
        "type": "Point",
        "coordinates": [
          -35.42154544253493,
          -73.85058248091754
        ]
      }
    },
    {
      "type": "Feature",
      "properties": {
        "norad_id": 34910,
        "name": "COSMOS 2251 DEB",
        "group": "cosmos-2251-debris",
        "lat": -73.39981423814214,
        "lon": 14.30036493118002,
        "alt_km": 968.32138176216,
        "timestamp": "2025-12-19T18:58:41.981465+00:00",
        "meta_object_name": "COSMOS 2251 DEB",
        "meta_object_id": "1993-036ADF",
        "meta_epoch": "2025-12-16T00:48:30.580128",
        "meta_mean_motion": 13.37690746,
        "meta_eccentricity": 0.04679747,
        "meta_inclination": 73.876,
        "meta_ra_of_asc_node": 96.2259,
        "meta_arg_of_pericenter": 214.6056,
        "meta_mean_anomaly": 328.1497,
        "meta_ephemeris_type": 0,
        "meta_classification_type": "U",
        "meta_norad_cat_id": 34910,
        "meta_element_set_no": 999,
        "meta_rev_at_epoch": 81568,
        "meta_bstar": 0.0011529423,
        "meta_mean_motion_dot": 1.118e-05,
        "meta_mean_motion_ddot": 0,
        "tle_line1": "1 34910U 93036ADF 25350.03368727  .00001118  00000+0  11529-2 0  9999",
        "tle_line2": "2 34910  73.8760  96.2259 0467974 214.6056 328.1497 13.37690746815682"
      },
      "geometry": {
        "type": "Point",
        "coordinates": [
          14.30036493118002,
          -73.39981423814214
        ]
      }
    },
    {
      "type": "Feature",
      "properties": {
        "norad_id": 34911,
        "name": "COSMOS 2251 DEB",
        "group": "cosmos-2251-debris",
        "lat": -66.7523221272434,
        "lon": 93.07761987400535,
        "alt_km": 713.9870491974098,
        "timestamp": "2025-12-19T18:58:41.981475+00:00",
        "meta_object_name": "COSMOS 2251 DEB",
        "meta_object_id": "1993-036ADG",
        "meta_epoch": "2025-12-18T03:01:44.907744",
        "meta_mean_motion": 14.59380767,
        "meta_eccentricity": 0.00838464,
        "meta_inclination": 74.0407,
        "meta_ra_of_asc_node": 234.4788,
        "meta_arg_of_pericenter": 358.5052,
        "meta_mean_anomaly": 153.7057,
        "meta_ephemeris_type": 0,
        "meta_classification_type": "U",
        "meta_norad_cat_id": 34911,
        "meta_element_set_no": 999,
        "meta_rev_at_epoch": 88665,
        "meta_bstar": 0.00011478995,
        "meta_mean_motion_dot": 5.38e-06,
        "meta_mean_motion_ddot": 0,
        "tle_line1": "1 34911U 93036ADG 25352.12621421  .00000538  00000+0  11479-3 0  9995",
        "tle_line2": "2 34911  74.0407 234.4788 0083846 358.5052 153.7057 14.59380767886656"
      },
      "geometry": {
        "type": "Point",
        "coordinates": [
          93.07761987400535,
          -66.7523221272434
        ]
      }
    },
    {
      "type": "Feature",
      "properties": {
        "norad_id": 34913,
        "name": "COSMOS 2251 DEB",
        "group": "cosmos-2251-debris",
        "lat": -10.406430424047382,
        "lon": -93.43809495613844,
        "alt_km": 767.1365084227646,
        "timestamp": "2025-12-19T18:58:41.981485+00:00",
        "meta_object_name": "COSMOS 2251 DEB",
        "meta_object_id": "1993-036ADJ",
        "meta_epoch": "2025-12-19T02:34:41.177856",
        "meta_mean_motion": 14.34639351,
        "meta_eccentricity": 0.00206015,
        "meta_inclination": 74.0285,
        "meta_ra_of_asc_node": 270.8286,
        "meta_arg_of_pericenter": 18.9839,
        "meta_mean_anomaly": 42.5691,
        "meta_ephemeris_type": 0,
        "meta_classification_type": "U",
        "meta_norad_cat_id": 34913,
        "meta_element_set_no": 999,
        "meta_rev_at_epoch": 65279,
        "meta_bstar": 4.1806087e-05,
        "meta_mean_motion_dot": 9.2e-07,
        "meta_mean_motion_ddot": 0,
        "tle_line1": "1 34913U 93036ADJ 25353.10742104  .00000092  00000+0  41806-4 0  9991",
        "tle_line2": "2 34913  74.0285 270.8286 0020601  18.9839  42.5691 14.34639351652793"
      },
      "geometry": {
        "type": "Point",
        "coordinates": [
          -93.43809495613844,
          -10.406430424047382
        ]
      }
    },
    {
      "type": "Feature",
      "properties": {
        "norad_id": 34918,
        "name": "COSMOS 2251 DEB",
        "group": "cosmos-2251-debris",
        "lat": 74.03539993623004,
        "lon": 33.52389333976913,
        "alt_km": 704.925749894207,
        "timestamp": "2025-12-19T18:58:41.981496+00:00",
        "meta_object_name": "COSMOS 2251 DEB",
        "meta_object_id": "1993-036ADP",
        "meta_epoch": "2025-12-19T03:50:35.567232",
        "meta_mean_motion": 14.61304419,
        "meta_eccentricity": 0.00332262,
        "meta_inclination": 74.0713,
        "meta_ra_of_asc_node": 301.3767,
        "meta_arg_of_pericenter": 267.8083,
        "meta_mean_anomaly": 106.949,
        "meta_ephemeris_type": 0,
        "meta_classification_type": "U",
        "meta_norad_cat_id": 34918,
        "meta_element_set_no": 999,
        "meta_rev_at_epoch": 65430,
        "meta_bstar": 0.001315247,
        "meta_mean_motion_dot": 6.521e-05,
        "meta_mean_motion_ddot": 0,
        "tle_line1": "1 34918U 93036ADP 25353.16013388  .00006521  00000+0  13152-2 0  9991",
        "tle_line2": "2 34918  74.0713 301.3767 0033226 267.8083 106.9490 14.61304419654306"
      },
      "geometry": {
        "type": "Point",
        "coordinates": [
          33.52389333976913,
          74.03539993623004
        ]
      }
    }
  ]
}